prefix,name,phonenumber,emailid,city,state,zipcode,country,status
ind.,christopher lopez,065.943.7863,carolcollins@example.com,websterton,nevada,,zambia,{true}
dr.,mike smith,503.525.44694495,harveypatrick@example.org,east joseph,texas,,greenland,{false}
dr.,anthony hunter,607.485.1773,llowe@example.org,new brycefurt,massachusetts,,guatemala,{true}
misc.,lisa valenzuela,878.118.421298424,shirley07@example.org,adamland,california,,madagascar,{false}
dr.,debra young,602-557-252346133,darrylmartin@example.net,hawkinsbury,arkansas,,tuvalu,{false}
ind.,anthony phillips,786-430-80475754,cruzcaitlin@example.org,west emily,kentucky,,sweden,{true}
mr.,angel wilson,001-132-967-0570,alexandernixon@example.com,beniteztown,utah,,mayotte,{false}
mx.,tony barrera,(008)982-1811253,amanda88@example.com,new claire,new york,,lesotho,{true}
mr.,douglas hobbs,+1-072-769-710895539,john91@example.net,lake sandramouth,delaware,,namibia,{true}
ind.,samuel white,251-196-56581150,ericbanks@example.net,west tina,wyoming,,malawi,{true}
mrs.,matthew gonzales,884.144.09260391,james44@example.net,billybury,idaho,,guadeloupe,{false}
dr.,gregory black,1146592757,gerald63@example.com,south bradleyhaven,nevada,,united states virgin islands,{false}
mr.,hannah huff,+1-981-328-31494531,paulamanda@example.org,robertsmouth,washington,,argentina,{true}
ms.,chris wagner,260.474.186977320,gschmidt@example.com,east shelbyport,oregon,,algeria,{true}
mrs.,thomas wilson,076-425-4114498,meghan28@example.org,south charles,maine,,guatemala,{true}
mrs.,daniel jones,474-524-4966243,jaimewilliams@example.com,petersenbury,vermont,,maldives,{true}
mrs.,sara drake,282-555-62945911,abrown@example.com,bensonland,arkansas,,ecuador,{true}
miss,julie sanchez,001-968-524-4872430,amanda87@example.com,west vicki,maryland,,saint kitts and nevis,{true}
dr.,cody carter,3350969835,marymills@example.org,millerbury,wyoming,,hungary,{true}
dr.,james mata,298-908-6674,frankdunn@example.net,browningburgh,colorado,,cameroon,{true}
mx.,kimberly sanchez,+1-784-358-8145,andrew34@example.org,,port derek,florida,australia,{true}
miss,katherine taylor,+1-526-308-3257061,williamsmichael@example.net,,lake rachel,west virginia,poland,{false}
mr.,stephen avila,656-993-2299,reneegentry@example.com,,north martha,new jersey,senegal,{true}
mx.,nicholas huerta,927-063-5285,jillian76@example.com,,williamtown,oregon,aruba,{true}
mrs.,derek whitney,001-487-490-9535735,nbarnett@example.net,,west jaystad,virginia,martinique,{false}
dr.,jessica schmidt,+1-826-788-5832,leonbrian@example.org,,lake paula,missouri,monaco,{true}
dr.,melissa sanchez,+1-441-719-12315283,leblancchase@example.org,,north johnfort,massachusetts,maldives,{true}
mrs.,emily gomez,+1-522-533-5091,jesseellis@example.org,,north jenniferfort,south dakota,singapore,{true}
dr.,jody pope,001-485-382-990004603,ryan09@example.com,,robertshire,michigan,fiji,{false}
mx.,kathleen bright,001-532-668-4976,jessicacarter@example.org,,south blake,north carolina,sweden,{false}
ms.,emily martinez,7095349897,rhondacollins@example.org,,stevenshire,washington,british indian ocean territory (chagos archipelago),{false}
dr.,denise wong,645-118-3675,michaelfreeman@example.net,,hernandezland,indiana,bahrain,{false}
mrs.,amy jones,001-780-486-2860,randy76@example.com,,bowersland,wisconsin,holy see (vatican city state),{true}
miss,dr. lisa martin md,+1-449-031-237595301,robertmccoy@example.com,,ashleyfurt,alaska,azerbaijan,{false}
mrs.,rebecca harris,(039)513-75290034,thomaswhite@example.net,,south stephanieton,michigan,mozambique,{false}
dr.,joseph smith,+1-699-856-072114981,lterry@example.com,,smithland,delaware,cook islands,{true}
miss,christian rush,001-901-677-7883566,knappchristy@example.com,,gainesport,delaware,lebanon,{false}
ind.,brittney white,142-141-6270452,usmith@example.net,,stephenbury,idaho,mozambique,{true}
mr.,jason perez,(659)838-15880285,khill@example.com,,juliehaven,illinois,seychelles,{true}
misc.,thomas ford,208.349.608754885,williamssteven@example.net,,east veronicatown,illinois,svalbard & jan mayen islands,{true}
ms.,christopher hicks,+1-066-911-6530907,melissaconrad@example.org,,wallerfurt,new hampshire,tonga,{true}
ind.,ruth flowers,053-988-192320778,brian72@example.net,,garzaborough,nebraska,zambia,{false}
ind.,david guzman,854.627.86811875,gonzalesjohnathan@example.net,,collinsberg,colorado,micronesia,{false}
mx.,dylan fowler,(544)360-4368,hopkinsmadison@example.net,,west elizabethton,vermont,thailand,{false}
miss,brian edwards,680.897.07508459,karenjordan@example.com,,east diana,colorado,pakistan,{false}
dr.,kristine logan,812-402-8228,lynnjoe@example.com,,new bonnie,maryland,liechtenstein,{false}
ms.,sarah walker,+1-011-236-04948205,pughbrittany@example.com,,south ann,louisiana,san marino,{true}
mrs.,don moore,895.267.3365,mary26@example.com,,nortonberg,south carolina,albania,{false}
mrs.,mary suarez,228.667.063108114,parkerkristin@example.net,,lake elizabethbury,ohio,austria,{false}
dr.,jodi zavala,892-379-774115334,lparker@example.org,,east jonathan,nevada,bermuda,{true}
dr.,taylor rivera,+1-678-142-464416131,gordonpaige@example.com,,morganton,oklahoma,turkey,{true}
mr.,frank hall,+1-416-705-1835048,bullockchristopher@example.com,,west benjaminville,kentucky,bosnia and herzegovina,{true}
dr.,monica phillips,+1-786-523-01104906,matthewhorton@example.org,,stanleymouth,hawaii,fiji,{false}
misc.,aaron hall,688.744.350173664,browningshirley@example.net,,port michael,new hampshire,holy see (vatican city state),{false}
mrs.,alexander thomas,268-010-8013318,lisarobinson@example.net,,buckleyshire,texas,kazakhstan,{false}
mx.,jeffrey martinez,001-219-115-6566,freycraig@example.net,,campbellbury,delaware,nepal,{false}
mr.,sarah hawkins,881-555-0430,davisgina@example.com,,south emilyton,wyoming,aruba,{true}
dr.,lisa martinez,(438)829-923313914,walkermaria@example.net,,kimland,oregon,belgium,{true}
miss,eric scott,+1-439-445-80935580,uhale@example.com,,shawnside,wisconsin,barbados,{true}
mx.,robert alexander,+1-938-792-3190838,jarvisjulia@example.net,,new wendy,south dakota,dominican republic,{true}
